[{"OBJECT_NAME":"GEESAT-4 11","OBJECT_ID":"2025-170L","EPOCH":"2026-03-09T21:54:41.896224","MEAN_MOTION":14.83783005,"ECCENTRICITY":0.00072132,"INCLINATION":49.9829,"RA_OF_ASC_NODE":274.1222,"ARG_OF_PERICENTER":73.5115,"MEAN_ANOMALY":286.6615,"EPHEMERIS_TYPE":0,"CLASSIFICATION_TYPE":"U","NORAD_CAT_ID":65129,"ELEMENT_SET_NO":999,"REV_AT_EPOCH":3169,"BSTAR":0.00036515131,"MEAN_MOTION_DOT":2.831e-5,"MEAN_MOTION_DDOT":0},{"OBJECT_NAME":"SL-16 DEB","OBJECT_ID":"1992-093BF","EPOCH":"2026-03-09T22:12:38.856672","MEAN_MOTION":14.72346491,"ECCENTRICITY":0.00586329,"INCLINATION":71.1033,"RA_OF_ASC_NODE":240.9235,"ARG_OF_PERICENTER":125.1472,"MEAN_ANOMALY":355.5998,"EPHEMERIS_TYPE":0,"CLASSIFICATION_TYPE":"U","NORAD_CAT_ID":22366,"ELEMENT_SET_NO":999,"REV_AT_EPOCH":70952,"BSTAR":0.0043203483,"MEAN_MOTION_DOT":0.00028164,"MEAN_MOTION_DDOT":0}]
